ONEWEB-0311             
1 49097U 21075Y   25177.41075222  .00000013  00000+0 -64196-6 0  9995
2 49097  87.9065  76.6900 0001698  68.4202 291.7110 13.17647671187774
ONEWEB-0312             
1 49098U 21075Z   25177.42594379  .00000083  00000+0  18109-3 0  9992
2 49098  87.9065  76.7172 0002016  67.2610 292.8735 13.17649251187739
ONEWEB-0313             
1 49099U 21075AA  25177.43086656  .00000049  00000+0  93215-4 0  9992
2 49099  87.9066  76.7320 0001777  78.0144 282.1187 13.17648324187745
ONEWEB-0314             
1 49100U 21075AB  25177.47319048  .00000034  00000+0  55616-4 0  9990
2 49100  87.9061  76.6548 0001945  65.9909 294.1426 13.17647775187710
ONEWEB-0315             
1 49101U 21075AC  25177.41053750 -.00000057  00000+0 -19451-3 0  9993
2 49101  87.8880  61.4017 0001483  76.2790 283.8503 13.12442673189507
ONEWEB-0316             
1 49102U 21075AD  25177.37441199  .00000059  00000+0  11566-3 0  9996
2 49102  87.9137  46.1714 0001557  80.0949 280.0359 13.18741212191327
ONEWEB-0317             
1 49103U 21075AE  25176.41297832 -.00000145  00000+0 -43726-3 0  9995
2 49103  87.8871  61.6157 0002648  82.9590 277.1840 13.12445269188392
ONEWEB-0318             
1 49104U 21075AF  25176.15722779  .00000080  00000+0  17004-3 0  9996
2 49104  87.9139  46.3995 0001551  77.0594 283.0711 13.18758654190119
