<?xml version="1.0" encoding="UTF-8"?>
<ndm xmlns:xsi="http://www.w3.org/2001/XMLSchema-instance" xsi:noNamespaceSchemaLocation="https://sanaregistry.org/r/ndmxml_unqualified/ndmxml-2.0.0-master-2.0.xsd">
<omm id="CCSDS_OMM_VERS" version="2.0">
<header><CREATION_DATE/><ORIGINATOR/></header><body><segment><metadata><OBJECT_NAME>ONEWEB-0311</OBJECT_NAME><OBJECT_ID>2021-075Y</OBJECT_ID><CENTER_NAME>EARTH</CENTER_NAME><REF_FRAME>TEME</REF_FRAME><TIME_SYSTEM>UTC</TIME_SYSTEM><MEAN_ELEMENT_THEORY>SGP4</MEAN_ELEMENT_THEORY></metadata><data><meanElements><EPOCH>2025-06-26T09:51:28.991808</EPOCH><MEAN_MOTION>13.17647671</MEAN_MOTION><ECCENTRICITY>.0001698</ECCENTRICITY><INCLINATION>87.9065</INCLINATION><RA_OF_ASC_NODE>76.6900</RA_OF_ASC_NODE><ARG_OF_PERICENTER>68.4202</ARG_OF_PERICENTER><MEAN_ANOMALY>291.7110</MEAN_ANOMALY></meanElements><tleParameters><EPHEMERIS_TYPE>0</EPHEMERIS_TYPE><CLASSIFICATION_TYPE>U</CLASSIFICATION_TYPE><NORAD_CAT_ID>49097</NORAD_CAT_ID><ELEMENT_SET_NO>999</ELEMENT_SET_NO><REV_AT_EPOCH>18777</REV_AT_EPOCH><BSTAR>-.64196E-6</BSTAR><MEAN_MOTION_DOT>.13E-6</MEAN_MOTION_DOT><MEAN_MOTION_DDOT>0</MEAN_MOTION_DDOT></tleParameters></data></segment></body></omm>
<omm id="CCSDS_OMM_VERS" version="2.0">
<header><CREATION_DATE/><ORIGINATOR/></header><body><segment><metadata><OBJECT_NAME>ONEWEB-0312</OBJECT_NAME><OBJECT_ID>2021-075Z</OBJECT_ID><CENTER_NAME>EARTH</CENTER_NAME><REF_FRAME>TEME</REF_FRAME><TIME_SYSTEM>UTC</TIME_SYSTEM><MEAN_ELEMENT_THEORY>SGP4</MEAN_ELEMENT_THEORY></metadata><data><meanElements><EPOCH>2025-06-26T10:13:21.543456</EPOCH><MEAN_MOTION>13.17649251</MEAN_MOTION><ECCENTRICITY>.0002016</ECCENTRICITY><INCLINATION>87.9065</INCLINATION><RA_OF_ASC_NODE>76.7172</RA_OF_ASC_NODE><ARG_OF_PERICENTER>67.2610</ARG_OF_PERICENTER><MEAN_ANOMALY>292.8735</MEAN_ANOMALY></meanElements><tleParameters><EPHEMERIS_TYPE>0</EPHEMERIS_TYPE><CLASSIFICATION_TYPE>U</CLASSIFICATION_TYPE><NORAD_CAT_ID>49098</NORAD_CAT_ID><ELEMENT_SET_NO>999</ELEMENT_SET_NO><REV_AT_EPOCH>18773</REV_AT_EPOCH><BSTAR>.18109E-3</BSTAR><MEAN_MOTION_DOT>.83E-6</MEAN_MOTION_DOT><MEAN_MOTION_DDOT>0</MEAN_MOTION_DDOT></tleParameters></data></segment></body></omm>
<omm id="CCSDS_OMM_VERS" version="2.0">
<header><CREATION_DATE/><ORIGINATOR/></header><body><segment><metadata><OBJECT_NAME>ONEWEB-0313</OBJECT_NAME><OBJECT_ID>2021-075AA</OBJECT_ID><CENTER_NAME>EARTH</CENTER_NAME><REF_FRAME>TEME</REF_FRAME><TIME_SYSTEM>UTC</TIME_SYSTEM><MEAN_ELEMENT_THEORY>SGP4</MEAN_ELEMENT_THEORY></metadata><data><meanElements><EPOCH>2025-06-26T10:20:26.870784</EPOCH><MEAN_MOTION>13.17648324</MEAN_MOTION><ECCENTRICITY>.0001777</ECCENTRICITY><INCLINATION>87.9066</INCLINATION><RA_OF_ASC_NODE>76.7320</RA_OF_ASC_NODE><ARG_OF_PERICENTER>78.0144</ARG_OF_PERICENTER><MEAN_ANOMALY>282.1187</MEAN_ANOMALY></meanElements><tleParameters><EPHEMERIS_TYPE>0</EPHEMERIS_TYPE><CLASSIFICATION_TYPE>U</CLASSIFICATION_TYPE><NORAD_CAT_ID>49099</NORAD_CAT_ID><ELEMENT_SET_NO>999</ELEMENT_SET_NO><REV_AT_EPOCH>18774</REV_AT_EPOCH><BSTAR>.93215E-4</BSTAR><MEAN_MOTION_DOT>.49E-6</MEAN_MOTION_DOT><MEAN_MOTION_DDOT>0</MEAN_MOTION_DDOT></tleParameters></data></segment></body></omm>
<omm id="CCSDS_OMM_VERS" version="2.0">
<header><CREATION_DATE/><ORIGINATOR/></header><body><segment><metadata><OBJECT_NAME>ONEWEB-0314</OBJECT_NAME><OBJECT_ID>2021-075AB</OBJECT_ID><CENTER_NAME>EARTH</CENTER_NAME><REF_FRAME>TEME</REF_FRAME><TIME_SYSTEM>UTC</TIME_SYSTEM><MEAN_ELEMENT_THEORY>SGP4</MEAN_ELEMENT_THEORY></metadata><data><meanElements><EPOCH>2025-06-26T11:21:23.657472</EPOCH><MEAN_MOTION>13.17647775</MEAN_MOTION><ECCENTRICITY>.0001945</ECCENTRICITY><INCLINATION>87.9061</INCLINATION><RA_OF_ASC_NODE>76.6548</RA_OF_ASC_NODE><ARG_OF_PERICENTER>65.9909</ARG_OF_PERICENTER><MEAN_ANOMALY>294.1426</MEAN_ANOMALY></meanElements><tleParameters><EPHEMERIS_TYPE>0</EPHEMERIS_TYPE><CLASSIFICATION_TYPE>U</CLASSIFICATION_TYPE><NORAD_CAT_ID>49100</NORAD_CAT_ID><ELEMENT_SET_NO>999</ELEMENT_SET_NO><REV_AT_EPOCH>18771</REV_AT_EPOCH><BSTAR>.55616E-4</BSTAR><MEAN_MOTION_DOT>.34E-6</MEAN_MOTION_DOT><MEAN_MOTION_DDOT>0</MEAN_MOTION_DDOT></tleParameters></data></segment></body></omm>
<omm id="CCSDS_OMM_VERS" version="2.0">
<header><CREATION_DATE/><ORIGINATOR/></header><body><segment><metadata><OBJECT_NAME>ONEWEB-0315</OBJECT_NAME><OBJECT_ID>2021-075AC</OBJECT_ID><CENTER_NAME>EARTH</CENTER_NAME><REF_FRAME>TEME</REF_FRAME><TIME_SYSTEM>UTC</TIME_SYSTEM><MEAN_ELEMENT_THEORY>SGP4</MEAN_ELEMENT_THEORY></metadata><data><meanElements><EPOCH>2025-06-26T09:51:10.440000</EPOCH><MEAN_MOTION>13.12442673</MEAN_MOTION><ECCENTRICITY>.0001483</ECCENTRICITY><INCLINATION>87.8880</INCLINATION><RA_OF_ASC_NODE>61.4017</RA_OF_ASC_NODE><ARG_OF_PERICENTER>76.2790</ARG_OF_PERICENTER><MEAN_ANOMALY>283.8503</MEAN_ANOMALY></meanElements><tleParameters><EPHEMERIS_TYPE>0</EPHEMERIS_TYPE><CLASSIFICATION_TYPE>U</CLASSIFICATION_TYPE><NORAD_CAT_ID>49101</NORAD_CAT_ID><ELEMENT_SET_NO>999</ELEMENT_SET_NO><REV_AT_EPOCH>18950</REV_AT_EPOCH><BSTAR>-.19451E-3</BSTAR><MEAN_MOTION_DOT>-.57E-6</MEAN_MOTION_DOT><MEAN_MOTION_DDOT>0</MEAN_MOTION_DDOT></tleParameters></data></segment></body></omm>
<omm id="CCSDS_OMM_VERS" version="2.0">
<header><CREATION_DATE/><ORIGINATOR/></header><body><segment><metadata><OBJECT_NAME>ONEWEB-0316</OBJECT_NAME><OBJECT_ID>2021-075AD</OBJECT_ID><CENTER_NAME>EARTH</CENTER_NAME><REF_FRAME>TEME</REF_FRAME><TIME_SYSTEM>UTC</TIME_SYSTEM><MEAN_ELEMENT_THEORY>SGP4</MEAN_ELEMENT_THEORY></metadata><data><meanElements><EPOCH>2025-06-26T08:59:09.195936</EPOCH><MEAN_MOTION>13.18741212</MEAN_MOTION><ECCENTRICITY>.0001557</ECCENTRICITY><INCLINATION>87.9137</INCLINATION><RA_OF_ASC_NODE>46.1714</RA_OF_ASC_NODE><ARG_OF_PERICENTER>80.0949</ARG_OF_PERICENTER><MEAN_ANOMALY>280.0359</MEAN_ANOMALY></meanElements><tleParameters><EPHEMERIS_TYPE>0</EPHEMERIS_TYPE><CLASSIFICATION_TYPE>U</CLASSIFICATION_TYPE><NORAD_CAT_ID>49102</NORAD_CAT_ID><ELEMENT_SET_NO>999</ELEMENT_SET_NO><REV_AT_EPOCH>19132</REV_AT_EPOCH><BSTAR>.11566E-3</BSTAR><MEAN_MOTION_DOT>.59E-6</MEAN_MOTION_DOT><MEAN_MOTION_DDOT>0</MEAN_MOTION_DDOT></tleParameters></data></segment></body></omm>
<omm id="CCSDS_OMM_VERS" version="2.0">
<header><CREATION_DATE/><ORIGINATOR/></header><body><segment><metadata><OBJECT_NAME>ONEWEB-0317</OBJECT_NAME><OBJECT_ID>2021-075AE</OBJECT_ID><CENTER_NAME>EARTH</CENTER_NAME><REF_FRAME>TEME</REF_FRAME><TIME_SYSTEM>UTC</TIME_SYSTEM><MEAN_ELEMENT_THEORY>SGP4</MEAN_ELEMENT_THEORY></metadata><data><meanElements><EPOCH>2025-06-25T09:54:41.326848</EPOCH><MEAN_MOTION>13.12445269</MEAN_MOTION><ECCENTRICITY>.0002648</ECCENTRICITY><INCLINATION>87.8871</INCLINATION><RA_OF_ASC_NODE>61.6157</RA_OF_ASC_NODE><ARG_OF_PERICENTER>82.9590</ARG_OF_PERICENTER><MEAN_ANOMALY>277.1840</MEAN_ANOMALY></meanElements><tleParameters><EPHEMERIS_TYPE>0</EPHEMERIS_TYPE><CLASSIFICATION_TYPE>U</CLASSIFICATION_TYPE><NORAD_CAT_ID>49103</NORAD_CAT_ID><ELEMENT_SET_NO>999</ELEMENT_SET_NO><REV_AT_EPOCH>18839</REV_AT_EPOCH><BSTAR>-.43726E-3</BSTAR><MEAN_MOTION_DOT>-.145E-5</MEAN_MOTION_DOT><MEAN_MOTION_DDOT>0</MEAN_MOTION_DDOT></tleParameters></data></segment></body></omm>
<omm id="CCSDS_OMM_VERS" version="2.0">
<header><CREATION_DATE/><ORIGINATOR/></header><body><segment><metadata><OBJECT_NAME>ONEWEB-0318</OBJECT_NAME><OBJECT_ID>2021-075AF</OBJECT_ID><CENTER_NAME>EARTH</CENTER_NAME><REF_FRAME>TEME</REF_FRAME><TIME_SYSTEM>UTC</TIME_SYSTEM><MEAN_ELEMENT_THEORY>SGP4</MEAN_ELEMENT_THEORY></metadata><data><meanElements><EPOCH>2025-06-25T03:46:24.481056</EPOCH><MEAN_MOTION>13.18758654</MEAN_MOTION><ECCENTRICITY>.0001551</ECCENTRICITY><INCLINATION>87.9139</INCLINATION><RA_OF_ASC_NODE>46.3995</RA_OF_ASC_NODE><ARG_OF_PERICENTER>77.0594</ARG_OF_PERICENTER><MEAN_ANOMALY>283.0711</MEAN_ANOMALY></meanElements><tleParameters><EPHEMERIS_TYPE>0</EPHEMERIS_TYPE><CLASSIFICATION_TYPE>U</CLASSIFICATION_TYPE><NORAD_CAT_ID>49104</NORAD_CAT_ID><ELEMENT_SET_NO>999</ELEMENT_SET_NO><REV_AT_EPOCH>19011</REV_AT_EPOCH><BSTAR>.17004E-3</BSTAR><MEAN_MOTION_DOT>.8E-6</MEAN_MOTION_DOT><MEAN_MOTION_DDOT>0</MEAN_MOTION_DDOT></tleParameters></data></segment></body></omm>

</ndm>
